{"type": "FeatureCollection", "features": [ {"type": "Feature", "properties": {"norad_id": 34001, "name": "COSMOS 2251 DEB", "group": "cosmos-2251-debris", "lat": -22.53632215173123, "lon": -98.48319703790835, "alt_km": 758.8990062202201, "timestamp": "2025-12-19T22:41:52.789241+00:00", "meta": {"OBJECT_NAME": "COSMOS 2251 DEB", "OBJECT_ID": "1993-036GL", "EPOCH": "2025-12-19T17:55:33.002400", "MEAN_MOTION": 14.37106351, "ECCENTRICITY": 0.002027, "INCLINATION": 74.0388, "RA_OF_ASC_NODE": 268.7028, "ARG_OF_PERICENTER": 348.412, "MEAN_ANOMALY": 39.9479, "EPHEMERIS_TYPE": 0, "CLASSIFICATION_TYPE": "U", "NORAD_CAT_ID": 34001, "ELEMENT_SET_NO": 999, "REV_AT_EPOCH": 88247, "BSTAR": 0.00013782, "MEAN_MOTION_DOT": 3.84e-06, "MEAN_MOTION_DDOT": 0}, "tle": {"line1": "1 34001U 93036GL  25353.74690975  .00000384  00000+0  13782-3 0  9992", "line2": "2 34001  74.0388 268.7028 0020270 348.4120  39.9479 14.37106351882477"}}, "geometry": {"type": "Point", "coordinates": [-98.48319703790835, -22.53632215173123]}}, {"type": "Feature", "properties": {"norad_id": 34003, "name": "COSMOS 2251 DEB", "group": "cosmos-2251-debris", "lat": -65.50339868603523, "lon": -125.77388769459264, "alt_km": 966.109093882721, "timestamp": "2025-12-19T22:41:52.789251+00:00", "meta": {"OBJECT_NAME": "COSMOS 2251 DEB", "OBJECT_ID": "1993-036GN", "EPOCH": "2025-12-18T21:00:51.472800", "MEAN_MOTION": 13.84184634, "ECCENTRICITY": 0.02748454, "INCLINATION": 74.0781, "RA_OF_ASC_NODE": 274.8157, "ARG_OF_PERICENTER": 25.4118, "MEAN_ANOMALY": 336.0231, "EPHEMERIS_TYPE": 0, "CLASSIFICATION_TYPE": "U", "NORAD_CAT_ID": 34003, "ELEMENT_SET_NO": 999, "REV_AT_EPOCH": 84510, "BSTAR": 0.0015140525, "MEAN_MOTION_DOT": 2.24e-05, "MEAN_MOTION_DDOT": 0}, "tle": {"line1": "1 34003U 93036GN  25352.87559575  .00002240  00000+0  15141-2 0  9990", "line2": "2 34003  74.0781 274.8157 0274845  25.4118 336.0231 13.84184634845102"}}, "geometry": {"type": "Point", "coordinates": [-125.77388769459264, -65.50339868603523]}}, {"type": "Feature", "properties": {"norad_id": 34004, "name": "COSMOS 2251 DEB", "group": "cosmos-2251-debris", "lat": 7.758387315026916, "lon": 117.36205450893183, "alt_km": 748.1660867595547, "timestamp": "2025-12-19T22:41:52.789262+00:00", "meta": {"OBJECT_NAME": "COSMOS 2251 DEB", "OBJECT_ID": "1993-036GP", "EPOCH": "2025-12-19T05:20:10.228704", "MEAN_MOTION": 14.49065638, "ECCENTRICITY": 0.0033435, "INCLINATION": 74.0356, "RA_OF_ASC_NODE": 300.9531, "ARG_OF_PERICENTER": 312.416, "MEAN_ANOMALY": 47.4172, "EPHEMERIS_TYPE": 0, "CLASSIFICATION_TYPE": "U", "NORAD_CAT_ID": 34004, "ELEMENT_SET_NO": 999, "REV_AT_EPOCH": 88124, "BSTAR": 0.00086157, "MEAN_MOTION_DOT": 3.268e-05, "MEAN_MOTION_DDOT": 0}, "tle": {"line1": "1 34004U 93036GP  25353.22234061  .00003268  00000+0  86157-3 0  9998", "line2": "2 34004  74.0356 300.9531 0033435 312.4160  47.4172 14.49065638881248"}}, "geometry": {"type": "Point", "coordinates": [117.36205450893183, 7.758387315026916]}}, {"type": "Feature", "properties": {"norad_id": 34005, "name": "COSMOS 2251 DEB", "group": "cosmos-2251-debris", "lat": -37.36960986275145, "lon": 32.95521808384101, "alt_km": 765.6254360618477, "timestamp": "2025-12-19T22:41:52.789272+00:00", "meta": {"OBJECT_NAME": "COSMOS 2251 DEB", "OBJECT_ID": "1993-036GQ", "EPOCH": "2025-12-19T07:28:53.752800", "MEAN_MOTION": 14.4030881, "ECCENTRICITY": 0.0021069, "INCLINATION": 74.0437, "RA_OF_ASC_NODE": 201.5051, "ARG_OF_PERICENTER": 318.6209, "MEAN_ANOMALY": 214.5502, "EPHEMERIS_TYPE": 0, "CLASSIFICATION_TYPE": "U", "NORAD_CAT_ID": 34005, "ELEMENT_SET_NO": 999, "REV_AT_EPOCH": 88473, "BSTAR": 8.2213e-05, "MEAN_MOTION_DOT": 2.35e-06, "MEAN_MOTION_DDOT": 0}, "tle": {"line1": "1 34005U 93036GQ  25353.31173325  .00000235  00000+0  82213-4 0  9995", "line2": "2 34005  74.0437 201.5051 0021069 318.6209 214.5502 14.40308810884738"}}, "geometry": {"type": "Point", "coordinates": [32.95521808384101, -37.36960986275145]}}, {"type": "Feature", "properties": {"norad_id": 34006, "name": "COSMOS 2251 DEB", "group": "cosmos-2251-debris", "lat": 70.01197786876088, "lon": -103.05789875085965, "alt_km": 568.0798458212676, "timestamp": "2025-12-19T22:41:52.789283+00:00", "meta": {"OBJECT_NAME": "COSMOS 2251 DEB", "OBJECT_ID": "1993-036GR", "EPOCH": "2025-12-18T03:40:23.640096", "MEAN_MOTION": 14.95111084, "ECCENTRICITY": 0.00113796, "INCLINATION": 74.0524, "RA_OF_ASC_NODE": 132.3805, "ARG_OF_PERICENTER": 71.3364, "MEAN_ANOMALY": 105.5146, "EPHEMERIS_TYPE": 0, "CLASSIFICATION_TYPE": "U", "NORAD_CAT_ID": 34006, "ELEMENT_SET_NO": 999, "REV_AT_EPOCH": 88749, "BSTAR": 0.0025744949, "MEAN_MOTION_DOT": 0.00028351, "MEAN_MOTION_DDOT": 0}, "tle": {"line1": "1 34006U 93036GR  25352.15305139  .00028351  00000+0  25745-2 0  9991", "line2": "2 34006  74.0524 132.3805 0011379  71.3364 105.5146 14.95111084887496"}}, "geometry": {"type": "Point", "coordinates": [-103.05789875085965, 70.01197786876088]}}, {"type": "Feature", "properties": {"norad_id": 34007, "name": "COSMOS 2251 DEB", "group": "cosmos-2251-debris", "lat": -22.392186863305614, "lon": -33.75686842532539, "alt_km": 702.155089031794, "timestamp": "2025-12-19T22:41:52.789293+00:00", "meta": {"OBJECT_NAME": "COSMOS 2251 DEB", "OBJECT_ID": "1993-036GS", "EPOCH": "2025-12-19T16:14:54.146112", "MEAN_MOTION": 14.64830622, "ECCENTRICITY": 0.0044216, "INCLINATION": 74.0188, "RA_OF_ASC_NODE": 333.5412, "ARG_OF_PERICENTER": 106.2183, "MEAN_ANOMALY": 254.3857, "EPHEMERIS_TYPE": 0, "CLASSIFICATION_TYPE": "U", "NORAD_CAT_ID": 34007, "ELEMENT_SET_NO": 999, "REV_AT_EPOCH": 89181, "BSTAR": 0.00047013, "MEAN_MOTION_DOT": 2.515e-05, "MEAN_MOTION_DDOT": 0}, "tle": {"line1": "1 34007U 93036GS  25353.67701558  .00002515  00000+0  47013-3 0  9992", "line2": "2 34007  74.0188 333.5412 0044216 106.2183 254.3857 14.64830622891810"}}, "geometry": {"type": "Point", "coordinates": [-33.75686842532539, -22.392186863305614]}}, {"type": "Feature", "properties": {"norad_id": 34008, "name": "COSMOS 2251 DEB", "group": "cosmos-2251-debris", "lat": -55.94193976862081, "lon": -67.70695637760845, "alt_km": 770.6643441191754, "timestamp": "2025-12-19T22:41:52.789303+00:00", "meta": {"OBJECT_NAME": "COSMOS 2251 DEB", "OBJECT_ID": "1993-036GT", "EPOCH": "2025-12-19T08:36:26.781120", "MEAN_MOTION": 14.33150515, "ECCENTRICITY": 0.0024534, "INCLINATION": 74.0344, "RA_OF_ASC_NODE": 318.4214, "ARG_OF_PERICENTER": 312.6344, "MEAN_ANOMALY": 200.0992, "EPHEMERIS_TYPE": 0, "CLASSIFICATION_TYPE": "U", "NORAD_CAT_ID": 34008, "ELEMENT_SET_NO": 999, "REV_AT_EPOCH": 88059, "BSTAR": 8.5658e-05, "MEAN_MOTION_DOT": 2.1e-06, "MEAN_MOTION_DDOT": 0}, "tle": {"line1": "1 34008U 93036GT  25353.35864330  .00000210  00000+0  85658-4 0  9994", "line2": "2 34008  74.0344 318.4214 0024534 312.6344 200.0992 14.33150515880593"}}, "geometry": {"type": "Point", "coordinates": [-67.70695637760845, -55.94193976862081]}}, {"type": "Feature", "properties": {"norad_id": 34009, "name": "COSMOS 2251 DEB", "group": "cosmos-2251-debris", "lat": -20.941899545404503, "lon": -42.520873647827095, "alt_km": 774.2873955608529, "timestamp": "2025-12-19T22:41:52.789313+00:00", "meta": {"OBJECT_NAME": "COSMOS 2251 DEB", "OBJECT_ID": "1993-036GU", "EPOCH": "2025-12-19T04:26:37.889664", "MEAN_MOTION": 14.3322722, "ECCENTRICITY": 0.00267543, "INCLINATION": 74.0373, "RA_OF_ASC_NODE": 325.1572, "ARG_OF_PERICENTER": 32.8472, "MEAN_ANOMALY": 342.9075, "EPHEMERIS_TYPE": 0, "CLASSIFICATION_TYPE": "U", "NORAD_CAT_ID": 34009, "ELEMENT_SET_NO": 999, "REV_AT_EPOCH": 88038, "BSTAR": 0.00011569587, "MEAN_MOTION_DOT": 2.93e-06, "MEAN_MOTION_DDOT": 0}, "tle": {"line1": "1 34009U 93036GU  25353.18516076  .00000293  00000+0  11570-3 0  9999", "line2": "2 34009  74.0373 325.1572 0026754  32.8472 342.9075 14.33227220880380"}}, "geometry": {"type": "Point", "coordinates": [-42.520873647827095, -20.941899545404503]}}, {"type": "Feature", "properties": {"norad_id": 34010, "name": "COSMOS 2251 DEB", "group": "cosmos-2251-debris", "lat": -70.30540051711819, "lon": -145.10315957441802, "alt_km": 515.5257997354447, "timestamp": "2025-12-19T22:41:52.789323+00:00", "meta": {"OBJECT_NAME": "COSMOS 2251 DEB", "OBJECT_ID": "1993-036GV", "EPOCH": "2025-12-19T04:05:03.369696", "MEAN_MOTION": 15.19746012, "ECCENTRICITY": 0.0004444, "INCLINATION": 73.9996, "RA_OF_ASC_NODE": 269.8144, "ARG_OF_PERICENTER": 61.7283, "MEAN_ANOMALY": 298.4362, "EPHEMERIS_TYPE": 0, "CLASSIFICATION_TYPE": "U", "NORAD_CAT_ID": 34010, "ELEMENT_SET_NO": 999, "REV_AT_EPOCH": 89383, "BSTAR": 0.0028624, "MEAN_MOTION_DOT": 0.00061726, "MEAN_MOTION_DDOT": 0}, "tle": {"line1": "1 34010U 93036GV  25353.17017789  .00061726  00000+0  28624-2 0  9992", "line2": "2 34010  73.9996 269.8144 0004444  61.7283 298.4362 15.19746012893831"}}, "geometry": {"type": "Point", "coordinates": [-145.10315957441802, -70.30540051711819]}}, {"type": "Feature", "properties": {"norad_id": 34011, "name": "COSMOS 2251 DEB", "group": "cosmos-2251-debris", "lat": -24.878598452390722, "lon": 144.41627296492246, "alt_km": 782.8549543641839, "timestamp": "2025-12-19T22:41:52.789333+00:00", "meta": {"OBJECT_NAME": "COSMOS 2251 DEB", "OBJECT_ID": "1993-036GW", "EPOCH": "2025-12-19T08:25:33.254976", "MEAN_MOTION": 14.41798846, "ECCENTRICITY": 0.0036015, "INCLINATION": 74.0144, "RA_OF_ASC_NODE": 317.8802, "ARG_OF_PERICENTER": 39.4931, "MEAN_ANOMALY": 320.8839, "EPHEMERIS_TYPE": 0, "CLASSIFICATION_TYPE": "U", "NORAD_CAT_ID": 34011, "ELEMENT_SET_NO": 999, "REV_AT_EPOCH": 88011, "BSTAR": 0.00053334, "MEAN_MOTION_DOT": 1.73e-05, "MEAN_MOTION_DDOT": 0}, "tle": {"line1": "1 34011U 93036GW  25353.35107934  .00001730  00000+0  53334-3 0  9991", "line2": "2 34011  74.0144 317.8802 0036015  39.4931 320.8839 14.41798846880117"}}, "geometry": {"type": "Point", "coordinates": [144.41627296492246, -24.878598452390722]}}]}